[{"OBJECT_NAME":"STARLINK-31331","OBJECT_ID":"2024-027R","EPOCH":"2026-03-09T22:10:12.903744","MEAN_MOTION":15.30185758,"ECCENTRICITY":0.00012453,"INCLINATION":53.1622,"RA_OF_ASC_NODE":308.5656,"ARG_OF_PERICENTER":109.4082,"MEAN_ANOMALY":250.7053,"EPHEMERIS_TYPE":0,"CLASSIFICATION_TYPE":"U","NORAD_CAT_ID":58946,"ELEMENT_SET_NO":999,"REV_AT_EPOCH":11736,"BSTAR":2.8055981e-5,"MEAN_MOTION_DOT":4.72e-6,"MEAN_MOTION_DDOT":0},{"OBJECT_NAME":"CZ-2C DEB","OBJECT_ID":"2018-056F","EPOCH":"2026-03-09T10:57:26.102304","MEAN_MOTION":15.27739248,"ECCENTRICITY":0.00119172,"INCLINATION":98.1188,"RA_OF_ASC_NODE":250.032,"ARG_OF_PERICENTER":4.6998,"MEAN_ANOMALY":355.4349,"EPHEMERIS_TYPE":0,"CLASSIFICATION_TYPE":"U","NORAD_CAT_ID":43534,"ELEMENT_SET_NO":999,"REV_AT_EPOCH":41855,"BSTAR":0.00085537155,"MEAN_MOTION_DOT":0.00023193,"MEAN_MOTION_DDOT":0}]
